ONEWEB-0522             
1 54140U 22138AD  26200.81950956  .00000050  00000+0  92052-4 0  9999
2 54140  87.9196 298.4622 0001979 104.7791 255.3561 13.19724087181115
ONEWEB-0523             
1 54141U 22138AE  26200.68048944 -.00000170  00000+0 -44907-3 0  9990
2 54141  87.9182 267.9662 0002154  76.5849 283.5525 13.20771084183590
ONEWEB-0524             
1 54142U 22138AF  26200.74615036 -.00000238  00000+0 -61826-3 0  9994
2 54142  87.9181 267.9498 0002817  87.4735 272.6721 13.20770768183605
ONEWEB-0525             
1 54143U 22138AG  26200.76265096  .00000034  00000+0  52220-4 0  9995
2 54143  87.9195 298.4807 0002297 108.7272 251.4110 13.19723441181125
ONEWEB-0526             
1 54144U 22138AH  26200.79582237  .00000010  00000+0 -84792-5 0  9993
2 54144  87.9193 298.4747 0002152 102.3218 257.8155 13.19724468181104
ONEWEB-0529             
1 54145U 22138AJ  26200.72316729  .00000018  00000+0  12495-4 0  9995
2 54145  87.9185 298.4958 0002137 106.6129 253.5238 13.19726126181110
ONEWEB-0531             
1 54146U 22138AK  26200.73267431 -.00000005  00000+0 -45107-4 0  9996
2 54146  87.9186 267.9500 0002373  77.3124 282.8275 13.20769709183605
ONEWEB-0535             
1 54147U 22138AL  26200.75632257  .00000065  00000+0  13091-3 0  9991
2 54147  87.9196 298.4762 0001919  91.3977 268.7376 13.19723524181137
ONEWEB-0536             
1 54148U 22138AM  26200.18890948 -.00000164  00000+0 -43602-3 0  9995
2 54148  87.9170 268.0769 0002626  76.7913 283.3513 13.20771064183528
ONEWEB-0527             
1 54642U 22166A   26200.12052056  .00000074  00000+0  14654-3 0  9992
2 54642  87.9232 237.6411 0002107  97.0728 263.0645 13.21827773175753
ONEWEB-0528             
1 54643U 22166B   26200.80263426  .00000003  00000+0 -25258-4 0  9999
2 54643  87.9231 237.5079 0002188 100.0695 260.0686 13.21826446175858
ONEWEB-0539             
1 54644U 22166C   26200.53769396  .00000050  00000+0  90727-4 0  9991
2 54644  87.9236 237.5346 0001851  96.4002 263.7343 13.21824225175816
ONEWEB-0540             
1 54645U 22166D   26200.46886742 -.00000076  00000+0 -21481-3 0  9999
2 54645  87.9230 237.5764 0001953  94.4633 265.6724 13.21824388175797
ONEWEB-0542             
1 54646U 22166E   26200.54779552 -.00000012  00000+0 -59679-4 0  9990
2 54646  87.9240 237.5318 0001760  96.3944 263.7390 13.21826124175817
ONEWEB-0545             
1 54647U 22166F   26200.13398951  .00000075  00000+0  15010-3 0  9993
2 54647  87.9233 237.6237 0001463  90.4094 269.7207 13.21826215175726
ONEWEB-0580             
1 54648U 22166G   26200.56292149 -.00000019  00000+0 -77188-4 0  9998
2 54648  87.9230 237.5375 0001728  88.9626 271.1705 13.21823714175825
ONEWEB-0582             
1 54649U 22166H   26200.83205976 -.00000059  00000+0 -17458-3 0  9998
2 54649  87.9231 237.4768 0001616  93.6406 266.4913 13.21823751175837
ONEWEB-0583             
1 54650U 22166J   26200.84385410  .00000005  00000+0 -20317-4 0  9992
2 54650  87.9230 237.4978 0001934  94.7725 265.3630 13.21825720175843
ONEWEB-0584             
1 54651U 22166K   26200.48554838  .00000004  00000+0 -22797-4 0  9998
2 54651  87.9231 237.5539 0002095  95.4181 264.7192 13.21825353175783
ONEWEB-0585             
1 54652U 22166L   26200.50909253  .00000049  00000+0  86828-4 0  9990
2 54652  87.9231 237.5368 0002247  96.1888 263.9502 13.21823945175797
ONEWEB-0586             
1 54653U 22166M   26200.82534100  .00000020  00000+0  17092-4 0  9997
2 54653  87.9231 237.4998 0001890  97.2817 262.8532 13.21823499175833
ONEWEB-0587             
1 54654U 22166N   26200.15417767  .00000017  00000+0  84443-5 0  9994
2 54654  87.9240 237.6097 0002407  97.4728 262.6679 13.21826201175906
ONEWEB-0589             
1 54655U 22166P   26200.51920170  .00000005  00000+0 -18736-4 0  9991
2 54655  87.9230 237.5454 0001304  82.0398 278.0884 13.21825619175811
ONEWEB-0590             
1 54656U 22166Q   26200.84706326 -.00000049  00000+0 -15041-3 0  9997
2 54656  87.9238 237.4734 0002197  83.8610 276.2774 13.21826222175849
ONEWEB-0591             
1 54657U 22166R   26200.55618579 -.00000099  00000+0 -27179-3 0  9998
2 54657  87.9228 237.5430 0002024  92.3043 267.8323 13.21824240175830
ONEWEB-0592             
1 54658U 22166S   26200.48386671  .00000019  00000+0  15172-4 0  9997
2 54658  87.9241 237.5385 0002055  96.6955 263.4413 13.21824558175708
ONEWEB-0593             
1 54659U 22166T   26200.50573513  .00000056  00000+0  10302-3 0  9994
2 54659  87.9237 237.5440 0001917  97.9898 262.1454 13.21826465175814
ONEWEB-0594             
1 54660U 22166U   26200.82870800  .00000032  00000+0  46403-4 0  9996
2 54660  87.9229 237.4952 0002267  98.6091 261.5299 13.21824519175870
ONEWEB-0595             
1 54661U 22166V   26200.80516398  .00000052  00000+0  94908-4 0  9999
2 54661  87.9238 237.4830 0002304  95.0058 265.1339 13.21826052175848
ONEWEB-0596             
1 54662U 22166W   26200.55283083  .00000515  00000+0  12150-2 0  9995
2 54662  87.9232 237.5427 0002105  96.3550 263.7824 13.21821341175812
